{"type": "FeatureCollection", "features": [{"type": "Feature", "geometry": {"type": "Polygon", "coordinates": [[[-36.5044, -6.3865], [-36.4998, -6.3582], [-36.4326, -6.3631], [-36.3946, -6.294], [-36.344, -6.3025], [-36.295, -6.2921], [-36.2791, -6.3176], [-36.2963, -6.3704], [-36.2916, -6.396], [-36.2512, -6.4044], [-36.2265, -6.434], [-36.1745, -6.4308], [-36.1102, -6.4292], [-36.0965, -6.4203], [-36.0961, -6.4202], [-36.0768, -6.4056], [-36.0053, -6.4811], [-35.9652, -6.4844], [-35.9442, -6.493], [-35.8704, -6.4886], [-35.7799, -6.4833], [-35.7733, -6.4828], [-35.7072, -6.4695], [-35.6636, -6.4468], [-35.6368, -6.4544], [-35.6041, -6.4592], [-35.5814, -6.4841], [-35.5648, -6.4918], [-35.5124, -6.4768], [-35.4421, -6.4866], [-35.4078, -6.4896], [-35.3645, -6.512], [-35.3413, -6.5386], [-35.2746, -6.5439], [-35.2244, -6.5216], [-35.194, -6.5503], [-35.1458, -6.5528], [-35.1125, -6.5051], [-35.0955, -6.4977], [-35.0577, -6.5278], [-35.0285, -6.5055], [-34.9685, -6.4872], [-34.9749, -6.4196], [-34.9921, -6.3709], [-35.0196, -6.3657], [-35.0319, -6.3108], [-35.0334, -6.2864], [-35.036, -6.2354], [-35.0622, -6.2258], [-35.0939, -6.1834], [-35.0978, -6.1398], [-35.0963, -6.0573], [-35.121, -5.9817], [-35.153, -5.947], [-35.1541, -5.8978], [-35.1793, -5.8645], [-35.1793, -5.7989], [-35.2036, -5.7432], [-35.1922, -5.7006], [-35.2176, -5.6711], [-35.2271, -5.6121], [-35.2283, -5.5751], [-35.2558, -5.5169], [-35.2607, -5.4806], [-35.288, -5.4606], [-35.293, -5.4328], [-35.326, -5.3813], [-35.3549, -5.3548], [-35.3707, -5.2846], [-35.3824, -5.27], [-35.4167, -5.221], [-35.4589, -5.197], [-35.4895, -5.157], [-35.572, -5.1343], [-35.6171, -5.114], [-35.639, -5.1195], [-35.7909, -5.0774], [-35.9083, -5.0595], [-35.981, -5.0417], [-36.0375, -5.0515], [-36.0995, -5.0772], [-36.1605, -5.0965], [-36.2425, -5.096], [-36.2901, -5.0877], [-36.3083, -5.1021], [-36.3316, -5.087], [-36.4068, -5.0807], [-36.4492, -5.0664], [-36.5078, -5.0623], [-36.5423, -5.0885], [-36.611, -5.0786], [-36.6134, -5.0943], [-36.7156, -5.0809], [-36.8122, -5.0261], [-36.8557, -4.9723], [-36.8785, -4.9506], [-36.9188, -4.9465], [-36.96, -4.9186], [-37.0033, -4.9294], [-37.0373, -4.9499], [-37.1039, -4.9224], [-37.1386, -4.9479], [-37.1576, -4.9454], [-37.221, -4.8814], [-37.2527, -4.8314], [-37.3569, -4.8581], [-37.4464, -4.881], [-37.4671, -4.8859], [-37.6403, -4.9264], [-37.6771, -5.0523], [-37.7251, -5.0706], [-37.7334, -5.1006], [-37.765, -5.1396], [-37.7882, -5.2192], [-37.7848, -5.2402], [-37.7869, -5.2972], [-37.8128, -5.3166], [-37.8475, -5.34], [-37.8637, -5.3741], [-37.8605, -5.4067], [-37.8895, -5.4523], [-37.9022, -5.5007], [-37.9347, -5.5053], [-37.9506, -5.5366], [-37.99, -5.5558], [-37.9983, -5.5853], [-38.0281, -5.6233], [-38.0828, -5.6724], [-38.0897, -5.7148], [-38.0469, -5.7329], [-38.0586, -5.7549], [-38.1189, -5.8328], [-38.1225, -5.8817], [-38.1593, -5.9246], [-38.1635, -5.9389], [-38.202, -5.9621], [-38.2522, -6.0102], [-38.2526, -6.0431], [-38.2749, -6.0658], [-38.3065, -6.087], [-38.3396, -6.0777], [-38.3678, -6.0876], [-38.3818, -6.0535], [-38.4048, -6.0573], [-38.4331, -6.0781], [-38.466, -6.1214], [-38.4755, -6.157], [-38.5272, -6.1934], [-38.5197, -6.223], [-38.5704, -6.293], [-38.5821, -6.3193], [-38.5625, -6.3557], [-38.5326, -6.3417], [-38.5043, -6.3561], [-38.4584, -6.3302], [-38.4886, -6.3616], [-38.4834, -6.3895], [-38.448, -6.4034], [-38.4017, -6.4096], [-38.3725, -6.4561], [-38.3438, -6.4567], [-38.2887, -6.5056], [-38.2565, -6.4832], [-38.229, -6.4833], [-38.1917, -6.4986], [-38.1451, -6.4942], [-38.1202, -6.5224], [-38.0709, -6.4639], [-38.0268, -6.4748], [-38.0082, -6.4322], [-37.9423, -6.4241], [-37.9194, -6.4116], [-37.8589, -6.3744], [-37.8432, -6.3331], [-37.8121, -6.2927], [-37.7649, -6.2922], [-37.7766, -6.2459], [-37.7424, -6.189], [-37.709, -6.177], [-37.6732, -6.1906], [-37.6162, -6.1762], [-37.5696, -6.1554], [-37.5219, -6.1518], [-37.4589, -6.145], [-37.4457, -6.1122], [-37.3936, -6.1094], [-37.3788, -6.0851], [-37.2565, -6.0285], [-37.2319, -6.0276], [-37.1739, -6.048], [-37.1751, -6.1422], [-37.1569, -6.1525], [-37.2016, -6.2057], [-37.2336, -6.2131], [-37.2706, -6.2517], [-37.2731, -6.28], [-37.3151, -6.2782], [-37.334, -6.3083], [-37.3634, -6.3222], [-37.3888, -6.391], [-37.3812, -6.4371], [-37.3958, -6.5101], [-37.4212, -6.5333], [-37.4647, -6.5327], [-37.4804, -6.6052], [-37.4662, -6.66], [-37.4847, -6.71], [-37.4073, -6.6972], [-37.3427, -6.7012], [-37.3143, -6.689], [-37.2639, -6.7322], [-37.2694, -6.762], [-37.2551, -6.8111], [-37.2346, -6.8246], [-37.1927, -6.8261], [-37.1522, -6.7984], [-37.1277, -6.7656], [-37.0754, -6.7541], [-37.0353, -6.7342], [-37.0036, -6.7096], [-36.9776, -6.7219], [-36.9591, -6.7833], [-36.9102, -6.7569], [-36.835, -6.7311], [-36.7727, -6.7871], [-36.7695, -6.8387], [-36.7302, -6.8364], [-36.76, -6.9145], [-36.7665, -6.9359], [-36.7374, -6.9728], [-36.7093, -6.9747], [-36.6872, -6.926], [-36.6549, -6.9282], [-36.6036, -6.9305], [-36.5679, -6.8748], [-36.5602, -6.8408], [-36.5437, -6.8421], [-36.51, -6.8179], [-36.5048, -6.7539], [-36.5335, -6.7335], [-36.5587, -6.7077], [-36.5207, -6.6106], [-36.5138, -6.5944], [-36.4382, -6.6293], [-36.4422, -6.5647], [-36.4793, -6.5399], [-36.4815, -6.5206], [-36.5258, -6.5012], [-36.5282, -6.4793], [-36.531, -6.4521], [-36.5044, -6.3865]]]}, "properties": {"codarea": "24"}}]}